[{"OBJECT_NAME":"OBJECT G","OBJECT_ID":"2025-155G","EPOCH":"2026-03-09T22:09:56.639808","MEAN_MOTION":15.27590702,"ECCENTRICITY":0.00081871,"INCLINATION":97.4488,"RA_OF_ASC_NODE":37.3259,"ARG_OF_PERICENTER":154.1528,"MEAN_ANOMALY":206.0122,"EPHEMERIS_TYPE":0,"CLASSIFICATION_TYPE":"U","NORAD_CAT_ID":64882,"ELEMENT_SET_NO":999,"REV_AT_EPOCH":6559,"BSTAR":0.0004792617,"MEAN_MOTION_DOT":0.00012876,"MEAN_MOTION_DDOT":0},{"OBJECT_NAME":"STARLINK-36041","OBJECT_ID":"2025-278H","EPOCH":"2026-03-09T03:34:52.481856","MEAN_MOTION":15.27568603,"ECCENTRICITY":0.00010371,"INCLINATION":42.9985,"RA_OF_ASC_NODE":117.6592,"ARG_OF_PERICENTER":258.8643,"MEAN_ANOMALY":101.2092,"EPHEMERIS_TYPE":0,"CLASSIFICATION_TYPE":"U","NORAD_CAT_ID":66798,"ELEMENT_SET_NO":999,"REV_AT_EPOCH":1512,"BSTAR":0.0012472554,"MEAN_MOTION_DOT":0.00034207,"MEAN_MOTION_DDOT":0}]
